{
  "type": "FeatureCollection",
  "features": [
    {
      "type": "Feature",
      "properties": {
        "norad_id": 30630,
        "name": "FENGYUN 1C DEB",
        "group": "fengyun-1c-debris",
        "lat": -60.848326688447415,
        "lon": -168.4503778510147,
        "alt_km": 826.2780710224697,
        "timestamp": "2025-12-27T02:10:16.467022+00:00",
        "meta_object_name": "FENGYUN 1C DEB",
        "meta_object_id": "1999-025ANM",
        "meta_epoch": "2025-12-26T11:22:27.158016",
        "meta_mean_motion": 14.22425752,
        "meta_eccentricity": 0.0025683,
        "meta_inclination": 99.1734,
        "meta_ra_of_asc_node": 174.0679,
        "meta_arg_of_pericenter": 36.0175,
        "meta_mean_anomaly": 346.7289,
        "meta_ephemeris_type": 0,
        "meta_classification_type": "U",
        "meta_norad_cat_id": 30630,
        "meta_element_set_no": 999,
        "meta_rev_at_epoch": 97408,
        "meta_bstar": 0.00082728,
        "meta_mean_motion_dot": 1.802e-05,
        "meta_mean_motion_ddot": 0,
        "tle_line1": "1 30630U 99025ANM 25360.47392544  .00001802  00000+0  82728-3 0  9991",
        "tle_line2": "2 30630  99.1734 174.0679 0025683  36.0175 346.7289 14.22425752974088"
      },
      "geometry": {
        "type": "Point",
        "coordinates": [
          -168.4503778510147,
          -60.848326688447415
        ]
      }
    },
    {
      "type": "Feature",
      "properties": {
        "norad_id": 30632,
        "name": "FENGYUN 1C DEB",
        "group": "fengyun-1c-debris",
        "lat": 61.21060016408903,
        "lon": 117.00854076171942,
        "alt_km": 672.5432517524923,
        "timestamp": "2025-12-27T02:10:16.467032+00:00",
        "meta_object_name": "FENGYUN 1C DEB",
        "meta_object_id": "1999-025ANP",
        "meta_epoch": "2025-12-26T06:30:09.966816",
        "meta_mean_motion": 14.63217884,
        "meta_eccentricity": 0.0013628,
        "meta_inclination": 98.8249,
        "meta_ra_of_asc_node": 132.5547,
        "meta_arg_of_pericenter": 129.3738,
        "meta_mean_anomaly": 298.8925,
        "meta_ephemeris_type": 0,
        "meta_classification_type": "U",
        "meta_norad_cat_id": 30632,
        "meta_element_set_no": 999,
        "meta_rev_at_epoch": 97889,
        "meta_bstar": 0.0036901,
        "meta_mean_motion_dot": 0.00019027,
        "meta_mean_motion_ddot": 0,
        "tle_line1": "1 30632U 99025ANP 25360.27094869  .00019027  00000+0  36901-2 0  9999",
        "tle_line2": "2 30632  98.8249 132.5547 0013628 129.3738 298.8925 14.63217884978894"
      },
      "geometry": {
        "type": "Point",
        "coordinates": [
          117.00854076171942,
          61.21060016408903
        ]
      }
    },
    {
      "type": "Feature",
      "properties": {
        "norad_id": 30633,
        "name": "FENGYUN 1C DEB",
        "group": "fengyun-1c-debris",
        "lat": 12.95704018151693,
        "lon": 47.01562423465532,
        "alt_km": 821.4300616195833,
        "timestamp": "2025-12-27T02:10:16.467042+00:00",
        "meta_object_name": "FENGYUN 1C DEB",
        "meta_object_id": "1999-025ANQ",
        "meta_epoch": "2025-12-26T13:41:36.320064",
        "meta_mean_motion": 14.04424162,
        "meta_eccentricity": 0.0130015,
        "meta_inclination": 98.4206,
        "meta_ra_of_asc_node": 224.5802,
        "meta_arg_of_pericenter": 220.8046,
        "meta_mean_anomaly": 200.0065,
        "meta_ephemeris_type": 0,
        "meta_classification_type": "U",
        "meta_norad_cat_id": 30633,
        "meta_element_set_no": 999,
        "meta_rev_at_epoch": 96086,
        "meta_bstar": 0.00097366,
        "meta_mean_motion_dot": 1.633e-05,
        "meta_mean_motion_ddot": 0,
        "tle_line1": "1 30633U 99025ANQ 25360.57055926  .00001633  00000+0  97366-3 0  9991",
        "tle_line2": "2 30633  98.4206 224.5802 0130015 220.8046 200.0065 14.04424162960861"
      },
      "geometry": {
        "type": "Point",
        "coordinates": [
          47.01562423465532,
          12.95704018151693
        ]
      }
    },
    {
      "type": "Feature",
      "properties": {
        "norad_id": 30634,
        "name": "FENGYUN 1C DEB",
        "group": "fengyun-1c-debris",
        "lat": 80.53215281494442,
        "lon": -116.52757472351553,
        "alt_km": 780.178779932141,
        "timestamp": "2025-12-27T02:10:16.467052+00:00",
        "meta_object_name": "FENGYUN 1C DEB",
        "meta_object_id": "1999-025ANR",
        "meta_epoch": "2025-12-26T11:00:38.414016",
        "meta_mean_motion": 14.09814556,
        "meta_eccentricity": 0.0121347,
        "meta_inclination": 99.2943,
        "meta_ra_of_asc_node": 343.7197,
        "meta_arg_of_pericenter": 58.5929,
        "meta_mean_anomaly": 68.1088,
        "meta_ephemeris_type": 0,
        "meta_classification_type": "U",
        "meta_norad_cat_id": 30634,
        "meta_element_set_no": 999,
        "meta_rev_at_epoch": 95810,
        "meta_bstar": 0.0022379,
        "meta_mean_motion_dot": 4.168e-05,
        "meta_mean_motion_ddot": 0,
        "tle_line1": "1 30634U 99025ANR 25360.45877794  .00004168  00000+0  22379-2 0  9991",
        "tle_line2": "2 30634  99.2943 343.7197 0121347  58.5929  68.1088 14.09814556958101"
      },
      "geometry": {
        "type": "Point",
        "coordinates": [
          -116.52757472351553,
          80.53215281494442
        ]
      }
    },
    {
      "type": "Feature",
      "properties": {
        "norad_id": 30639,
        "name": "FENGYUN 1C DEB",
        "group": "fengyun-1c-debris",
        "lat": -26.886302960792385,
        "lon": -70.96776361153198,
        "alt_km": 747.3227141011121,
        "timestamp": "2025-12-27T02:10:16.467062+00:00",
        "meta_object_name": "FENGYUN 1C DEB",
        "meta_object_id": "1999-025ANW",
        "meta_epoch": "2025-12-26T06:45:46.865088",
        "meta_mean_motion": 14.32547331,
        "meta_eccentricity": 0.006878,
        "meta_inclination": 99.0174,
        "meta_ra_of_asc_node": 112.8096,
        "meta_arg_of_pericenter": 242.2296,
        "meta_mean_anomaly": 117.1901,
        "meta_ephemeris_type": 0,
        "meta_classification_type": "U",
        "meta_norad_cat_id": 30639,
        "meta_element_set_no": 999,
        "meta_rev_at_epoch": 96913,
        "meta_bstar": 0.0032737,
        "meta_mean_motion_dot": 9.079e-05,
        "meta_mean_motion_ddot": 0,
        "tle_line1": "1 30639U 99025ANW 25360.28179242  .00009079  00000+0  32737-2 0  9995",
        "tle_line2": "2 30639  99.0174 112.8096 0068780 242.2296 117.1901 14.32547331969137"
      },
      "geometry": {
        "type": "Point",
        "coordinates": [
          -70.96776361153198,
          -26.886302960792385
        ]
      }
    },
    {
      "type": "Feature",
      "properties": {
        "norad_id": 30640,
        "name": "FENGYUN 1C DEB",
        "group": "fengyun-1c-debris",
        "lat": 32.22541876005958,
        "lon": -101.72733583168782,
        "alt_km": 837.990187697872,
        "timestamp": "2025-12-27T02:10:16.467072+00:00",
        "meta_object_name": "FENGYUN 1C DEB",
        "meta_object_id": "1999-025ANX",
        "meta_epoch": "2025-12-26T10:49:55.650720",
        "meta_mean_motion": 14.1470148,
        "meta_eccentricity": 0.0079898,
        "meta_inclination": 99.0559,
        "meta_ra_of_asc_node": 71.8547,
        "meta_arg_of_pericenter": 61.9172,
        "meta_mean_anomaly": 71.1543,
        "meta_ephemeris_type": 0,
        "meta_classification_type": "U",
        "meta_norad_cat_id": 30640,
        "meta_element_set_no": 999,
        "meta_rev_at_epoch": 96639,
        "meta_bstar": 0.001359,
        "meta_mean_motion_dot": 2.653e-05,
        "meta_mean_motion_ddot": 0,
        "tle_line1": "1 30640U 99025ANX 25360.45133855  .00002653  00000+0  13590-2 0  9993",
        "tle_line2": "2 30640  99.0559  71.8547 0079898  61.9172  71.1543 14.14701480966395"
      },
      "geometry": {
        "type": "Point",
        "coordinates": [
          -101.72733583168782,
          32.22541876005958
        ]
      }
    },
    {
      "type": "Feature",
      "properties": {
        "norad_id": 30641,
        "name": "FENGYUN 1C DEB",
        "group": "fengyun-1c-debris",
        "lat": 3.8801405526948076,
        "lon": 117.67484379305817,
        "alt_km": 640.3033663654469,
        "timestamp": "2025-12-27T02:10:16.467082+00:00",
        "meta_object_name": "FENGYUN 1C DEB",
        "meta_object_id": "1999-025ANY",
        "meta_epoch": "2025-12-26T19:01:43.960224",
        "meta_mean_motion": 14.79081,
        "meta_eccentricity": 0.0136359,
        "meta_inclination": 98.9436,
        "meta_ra_of_asc_node": 296.7321,
        "meta_arg_of_pericenter": 82.7391,
        "meta_mean_anomaly": 307.9685,
        "meta_ephemeris_type": 0,
        "meta_classification_type": "U",
        "meta_norad_cat_id": 30641,
        "meta_element_set_no": 999,
        "meta_rev_at_epoch": 740,
        "meta_bstar": 0.00063067,
        "meta_mean_motion_dot": 5.394e-05,
        "meta_mean_motion_ddot": 0,
        "tle_line1": "1 30641U 99025ANY 25360.79286991  .00005394  00000+0  63067-3 0  9991",
        "tle_line2": "2 30641  98.9436 296.7321 0136359  82.7391 307.9685 14.79081000  7401"
      },
      "geometry": {
        "type": "Point",
        "coordinates": [
          117.67484379305817,
          3.8801405526948076
        ]
      }
    }
  ]
}